{"type": "FeatureCollection", "features": [ {"type": "Feature", "properties": {"norad_id": 39122, "name": "EUTELSAT 117 WEST A", "group": "eutelsat", "lat": 0.022337119673476197, "lon": 126.89460749286697, "alt_km": 35795.29678769367, "timestamp": "2025-12-11T10:53:15.556958+00:00", "meta": {"OBJECT_NAME": "EUTELSAT 117 WEST A", "OBJECT_ID": "2013-012A", "EPOCH": "2025-12-11T05:08:38.770368", "MEAN_MOTION": 1.00271255, "ECCENTRICITY": 0.0002988, "INCLINATION": 0.0133, "RA_OF_ASC_NODE": 6.2922, "ARG_OF_PERICENTER": 256.4978, "MEAN_ANOMALY": 137.7439, "EPHEMERIS_TYPE": 0, "CLASSIFICATION_TYPE": "U", "NORAD_CAT_ID": 39122, "ELEMENT_SET_NO": 999, "REV_AT_EPOCH": 4654, "BSTAR": 0, "MEAN_MOTION_DOT": -7e-08, "MEAN_MOTION_DDOT": 0}, "tle": {"line1": "1 39122U 13012A   25345.21433762 -.00000007  00000+0  00000+0 0  9997", "line2": "2 39122   0.0133   6.2922 0002988 256.4978 137.7439  1.00271255 46541"}}, "geometry": {"type": "Point", "coordinates": [126.89460749286697, 0.022337119673476197]}}, {"type": "Feature", "properties": {"norad_id": 39163, "name": "EUTELSAT 7B", "group": "eutelsat", "lat": -0.07441512020393574, "lon": -109.33175187324662, "alt_km": 35777.82310485679, "timestamp": "2025-12-11T10:53:15.556971+00:00", "meta": {"OBJECT_NAME": "EUTELSAT 7B", "OBJECT_ID": "2013-022A", "EPOCH": "2025-12-11T03:16:21.114336", "MEAN_MOTION": 1.00272384, "ECCENTRICITY": 0.000461, "INCLINATION": 0.0721, "RA_OF_ASC_NODE": 18.2147, "ARG_OF_PERICENTER": 298.0665, "MEAN_ANOMALY": 179.8987, "EPHEMERIS_TYPE": 0, "CLASSIFICATION_TYPE": "U", "NORAD_CAT_ID": 39163, "ELEMENT_SET_NO": 999, "REV_AT_EPOCH": 4607, "BSTAR": 0, "MEAN_MOTION_DOT": 5.4e-07, "MEAN_MOTION_DDOT": 0}, "tle": {"line1": "1 39163U 13022A   25345.13635549  .00000054  00000+0  00000+0 0  9992", "line2": "2 39163   0.0721  18.2147 0004610 298.0665 179.8987  1.00272384 46077"}}, "geometry": {"type": "Point", "coordinates": [-109.33175187324662, -0.07441512020393574]}}, {"type": "Feature", "properties": {"norad_id": 39612, "name": "EXPRESS-AT1", "group": "eutelsat", "lat": -0.006760159617418904, "lon": -60.2785525559365, "alt_km": 35786.209964851, "timestamp": "2025-12-11T10:53:15.556983+00:00", "meta": {"OBJECT_NAME": "EXPRESS-AT1", "OBJECT_ID": "2014-010A", "EPOCH": "2025-12-11T03:30:19.775808", "MEAN_MOTION": 1.00271105, "ECCENTRICITY": 4.68e-05, "INCLINATION": 0.0142, "RA_OF_ASC_NODE": 297.885, "ARG_OF_PERICENTER": 272.6964, "MEAN_ANOMALY": 338.1039, "EPHEMERIS_TYPE": 0, "CLASSIFICATION_TYPE": "U", "NORAD_CAT_ID": 39612, "ELEMENT_SET_NO": 999, "REV_AT_EPOCH": 4293, "BSTAR": 0, "MEAN_MOTION_DOT": 8.5e-07, "MEAN_MOTION_DDOT": 0}, "tle": {"line1": "1 39612U 14010A   25345.14606222  .00000085  00000+0  00000+0 0  9990", "line2": "2 39612   0.0142 297.8850 0000468 272.6964 338.1039  1.00271105 42935"}}, "geometry": {"type": "Point", "coordinates": [-60.2785525559365, -0.006760159617418904]}}, {"type": "Feature", "properties": {"norad_id": 39613, "name": "EXPRESS-AT2", "group": "eutelsat", "lat": 0.02296650374977938, "lon": 23.599834669022332, "alt_km": 35787.363451093326, "timestamp": "2025-12-11T10:53:15.556995+00:00", "meta": {"OBJECT_NAME": "EXPRESS-AT2", "OBJECT_ID": "2014-010B", "EPOCH": "2025-12-11T06:08:34.749600", "MEAN_MOTION": 1.00268348, "ECCENTRICITY": 0.0001361, "INCLINATION": 0.0164, "RA_OF_ASC_NODE": 344.6422, "ARG_OF_PERICENTER": 306.1958, "MEAN_ANOMALY": 21.388, "EPHEMERIS_TYPE": 0, "CLASSIFICATION_TYPE": "U", "NORAD_CAT_ID": 39613, "ELEMENT_SET_NO": 999, "REV_AT_EPOCH": 4261, "BSTAR": 0, "MEAN_MOTION_DOT": 0, "MEAN_MOTION_DDOT": 0}, "tle": {"line1": "1 39613U 14010B   25345.25595775  .00000000  00000+0  00000+0 0  9990", "line2": "2 39613   0.0164 344.6422 0001361 306.1958  21.3880  1.00268348 42610"}}, "geometry": {"type": "Point", "coordinates": [23.599834669022332, 0.02296650374977938]}}, {"type": "Feature", "properties": {"norad_id": 39773, "name": "EUTELSAT 3B", "group": "eutelsat", "lat": -0.07927223871502076, "lon": -113.15004901264997, "alt_km": 35767.36155812026, "timestamp": "2025-12-11T10:53:15.557007+00:00", "meta": {"OBJECT_NAME": "EUTELSAT 3B", "OBJECT_ID": "2014-030A", "EPOCH": "2025-12-10T23:49:46.953120", "MEAN_MOTION": 1.00272013, "ECCENTRICITY": 0.0004641, "INCLINATION": 0.0617, "RA_OF_ASC_NODE": 345.4375, "ARG_OF_PERICENTER": 243.1309, "MEAN_ANOMALY": 211.9454, "EPHEMERIS_TYPE": 0, "CLASSIFICATION_TYPE": "U", "NORAD_CAT_ID": 39773, "ELEMENT_SET_NO": 999, "REV_AT_EPOCH": 4218, "BSTAR": 0, "MEAN_MOTION_DOT": 2.5e-07, "MEAN_MOTION_DDOT": 0}, "tle": {"line1": "1 39773U 14030A   25344.99290455  .00000025  00000+0  00000+0 0  9993", "line2": "2 39773   0.0617 345.4375 0004641 243.1309 211.9454  1.00272013 42180"}}, "geometry": {"type": "Point", "coordinates": [-113.15004901264997, -0.07927223871502076]}}, {"type": "Feature", "properties": {"norad_id": 40425, "name": "EUTELSAT 115 WEST B", "group": "eutelsat", "lat": -0.004293520935392127, "lon": 128.81441184761562, "alt_km": 35785.75498593984, "timestamp": "2025-12-11T10:53:15.557019+00:00", "meta": {"OBJECT_NAME": "EUTELSAT 115 WEST B", "OBJECT_ID": "2015-010B", "EPOCH": "2025-12-10T23:16:05.181888", "MEAN_MOTION": 1.00269045, "ECCENTRICITY": 3.11e-05, "INCLINATION": 0.0085, "RA_OF_ASC_NODE": 151.2991, "ARG_OF_PERICENTER": 11.6564, "MEAN_ANOMALY": 151.0992, "EPHEMERIS_TYPE": 0, "CLASSIFICATION_TYPE": "U", "NORAD_CAT_ID": 40425, "ELEMENT_SET_NO": 999, "REV_AT_EPOCH": 3950, "BSTAR": 0, "MEAN_MOTION_DOT": -1.9e-07, "MEAN_MOTION_DDOT": 0}, "tle": {"line1": "1 40425U 15010B   25344.96950442 -.00000019  00000+0  00000+0 0  9998", "line2": "2 40425   0.0085 151.2991 0000311  11.6564 151.0992  1.00269045 39507"}}, "geometry": {"type": "Point", "coordinates": [128.81441184761562, -0.004293520935392127]}}, {"type": "Feature", "properties": {"norad_id": 40875, "name": "EUTELSAT 8 WEST B", "group": "eutelsat", "lat": -0.06779609001984276, "lon": -124.280357939231, "alt_km": 35770.124933879255, "timestamp": "2025-12-11T10:53:15.557047+00:00", "meta": {"OBJECT_NAME": "EUTELSAT 8 WEST B", "OBJECT_ID": "2015-039B", "EPOCH": "2025-12-11T03:11:59.032032", "MEAN_MOTION": 1.0027158, "ECCENTRICITY": 0.000419, "INCLINATION": 0.0649, "RA_OF_ASC_NODE": 4.4095, "ARG_OF_PERICENTER": 256.7362, "MEAN_ANOMALY": 218.9643, "EPHEMERIS_TYPE": 0, "CLASSIFICATION_TYPE": "U", "NORAD_CAT_ID": 40875, "ELEMENT_SET_NO": 999, "REV_AT_EPOCH": 3777, "BSTAR": 0, "MEAN_MOTION_DOT": -6e-07, "MEAN_MOTION_DDOT": 0}, "tle": {"line1": "1 40875U 15039B   25345.13332213 -.00000060  00000+0  00000+0 0  9994", "line2": "2 40875   0.0649   4.4095 0004190 256.7362 218.9643  1.00271580 37773"}}, "geometry": {"type": "Point", "coordinates": [-124.280357939231, -0.06779609001984276]}}, {"type": "Feature", "properties": {"norad_id": 41310, "name": "EUTELSAT 9B", "group": "eutelsat", "lat": -0.024643969884884914, "lon": -107.2669899982677, "alt_km": 35765.96063944368, "timestamp": "2025-12-11T10:53:15.557062+00:00", "meta": {"OBJECT_NAME": "EUTELSAT 9B", "OBJECT_ID": "2016-005A", "EPOCH": "2025-12-11T03:16:51.064896", "MEAN_MOTION": 1.00272999, "ECCENTRICITY": 0.0004801, "INCLINATION": 0.0411, "RA_OF_ASC_NODE": 60.4885, "ARG_OF_PERICENTER": 205.7857, "MEAN_ANOMALY": 232.0598, "EPHEMERIS_TYPE": 0, "CLASSIFICATION_TYPE": "U", "NORAD_CAT_ID": 41310, "ELEMENT_SET_NO": 999, "REV_AT_EPOCH": 3623, "BSTAR": 0, "MEAN_MOTION_DOT": 6.8e-07, "MEAN_MOTION_DDOT": 0}, "tle": {"line1": "1 41310U 16005A   25345.13670214  .00000068  00000+0  00000+0 0  9996", "line2": "2 41310   0.0411  60.4885 0004801 205.7857 232.0598  1.00272999 36237"}}, "geometry": {"type": "Point", "coordinates": [-107.2669899982677, -0.024643969884884914]}}, {"type": "Feature", "properties": {"norad_id": 41382, "name": "EUTELSAT 65 WEST A", "group": "eutelsat", "lat": 0.005678641676405839, "lon": 178.49512834953467, "alt_km": 35785.68244078806, "timestamp": "2025-12-11T10:53:15.557075+00:00", "meta": {"OBJECT_NAME": "EUTELSAT 65 WEST A", "OBJECT_ID": "2016-014A", "EPOCH": "2025-12-11T03:56:38.653728", "MEAN_MOTION": 1.00272332, "ECCENTRICITY": 0.0002574, "INCLINATION": 0.0508, "RA_OF_ASC_NODE": 10.2619, "ARG_OF_PERICENTER": 256.8419, "MEAN_ANOMALY": 166.9855, "EPHEMERIS_TYPE": 0, "CLASSIFICATION_TYPE": "U", "NORAD_CAT_ID": 41382, "ELEMENT_SET_NO": 999, "REV_AT_EPOCH": 3565, "BSTAR": 0, "MEAN_MOTION_DOT": -2.7e-06, "MEAN_MOTION_DDOT": 0}, "tle": {"line1": "1 41382U 16014A   25345.16433627 -.00000270  00000+0  00000+0 0  9999", "line2": "2 41382   0.0508  10.2619 0002574 256.8419 166.9855  1.00272332 35654"}}, "geometry": {"type": "Point", "coordinates": [178.49512834953467, 0.005678641676405839]}}, {"type": "Feature", "properties": {"norad_id": 41589, "name": "EUTELSAT 117 WEST B", "group": "eutelsat", "lat": -0.013164998804461262, "lon": 126.73516170807746, "alt_km": 35785.32810493901, "timestamp": "2025-12-11T10:53:15.557088+00:00", "meta": {"OBJECT_NAME": "EUTELSAT 117 WEST B", "OBJECT_ID": "2016-038B", "EPOCH": "2025-12-10T23:15:27.743040", "MEAN_MOTION": 1.00269754, "ECCENTRICITY": 3.23e-05, "INCLINATION": 0.0411, "RA_OF_ASC_NODE": 158.7318, "ARG_OF_PERICENTER": 311.552, "MEAN_ANOMALY": 201.5309, "EPHEMERIS_TYPE": 0, "CLASSIFICATION_TYPE": "U", "NORAD_CAT_ID": 41589, "ELEMENT_SET_NO": 999, "REV_AT_EPOCH": 3477, "BSTAR": 0, "MEAN_MOTION_DOT": -6e-08, "MEAN_MOTION_DDOT": 0}, "tle": {"line1": "1 41589U 16038B   25344.96907110 -.00000006  00000+0  00000+0 0  9991", "line2": "2 41589   0.0411 158.7318 0000323 311.5520 201.5309  1.00269754 34778"}}, "geometry": {"type": "Point", "coordinates": [126.73516170807746, -0.013164998804461262]}}]}